start=new Date('2021-09-22T00:00:00.000Z').valueOf();
sats=[{"REV_AT_EPOCH":"6090","RCS_SIZE":"LARGE","APOAPSIS":"548.143","COUNTRY_CODE":"US","RA_OF_ASC_NODE":"35.2099","BSTAR":"0.00008048000000","TLE_LINE2":"2 46141  53.0569  35.2099 0001339 119.4394 240.6728 15.06399286 60904","OBJECT_ID":"2020-057AA","TIME_SYSTEM":"UTC","SEMIMAJOR_AXIS":"6925.351","PERIAPSIS":"546.288","NORAD_CAT_ID":"46141","CLASSIFICATION_TYPE":"U","MEAN_ANOMALY":"240.6728","TLE_LINE1":"1 46141U 20057AA  21264.41675820  .00000917  00000-0  80480-4 0  9999","DECAY_DATE":null,"EPHEMERIS_TYPE":"0","OBJECT_TYPE":"PAYLOAD","OBJECT_NAME":"STARLINK-1596","INCLINATION":"53.0569","ELEMENT_SET_NO":"999","ARG_OF_PERICENTER":"119.4394","MEAN_MOTION_DOT":"0.00000917","MEAN_MOTION_DDOT":"0.0000000000000","EPOCH":"2021-09-21T10:00:07.908480","REF_FRAME":"TEME","GP_ID":"185156253","MEAN_MOTION":"15.06399286","FILE":"3121847","CENTER_NAME":"EARTH","ECCENTRICITY":"0.00013390","LAUNCH_DATE":"2020-08-18","PERIOD":"95.592","SITE":"AFETR","MEAN_ELEMENT_THEORY":"SGP4"},{"FILE":"3122258","GP_ID":"185188189","MEAN_MOTION":"15.06399577","MEAN_MOTION_DDOT":"0.0000000000000","MEAN_MOTION_DOT":"0.00001183","EPOCH":"2021-09-21T19:59:55.977792","REF_FRAME":"TEME","ARG_OF_PERICENTER":"97.8513","INCLINATION":"53.0564","ELEMENT_SET_NO":"999","OBJECT_NAME":"STARLINK-1597","OBJECT_TYPE":"PAYLOAD","EPHEMERIS_TYPE":"0","SITE":"AFETR","MEAN_ELEMENT_THEORY":"SGP4","PERIOD":"95.592","LAUNCH_DATE":"2020-08-18","ECCENTRICITY":"0.00016710","CENTER_NAME":"EARTH","OBJECT_ID":"2020-057AB","TLE_LINE2":"2 46142  53.0564  73.3254 0001671  97.8513 262.2665 15.06399577 60405","BSTAR":"0.00009834000000","COUNTRY_CODE":"US","RA_OF_ASC_NODE":"73.3254","APOAPSIS":"548.372","RCS_SIZE":"LARGE","REV_AT_EPOCH":"6040","DECAY_DATE":null,"TLE_LINE1":"1 46142U 20057AB  21264.83328678  .00001183  00000-0  98340-4 0  9992","MEAN_ANOMALY":"262.2665","NORAD_CAT_ID":"46142","CLASSIFICATION_TYPE":"U","SEMIMAJOR_AXIS":"6925.350","TIME_SYSTEM":"UTC","PERIAPSIS":"546.058"},{"TLE_LINE1":"1 46143U 20057AC  21264.40386921 -.00000728  00000-0 -29958-4 0  9996","DECAY_DATE":null,"TIME_SYSTEM":"UTC","SEMIMAJOR_AXIS":"6925.355","PERIAPSIS":"546.163","MEAN_ANOMALY":"253.3569","NORAD_CAT_ID":"46143","CLASSIFICATION_TYPE":"U","COUNTRY_CODE":"US","RA_OF_ASC_NODE":"55.2616","OBJECT_ID":"2020-057AC","TLE_LINE2":"2 46143  53.0554  55.2616 0001527 106.7587 253.3569 15.06397867 60625","BSTAR":"-0.00002995800000","REV_AT_EPOCH":"6062","APOAPSIS":"548.278","RCS_SIZE":"LARGE","PERIOD":"95.592","SITE":"AFETR","MEAN_ELEMENT_THEORY":"SGP4","CENTER_NAME":"EARTH","LAUNCH_DATE":"2020-08-18","ECCENTRICITY":"0.00015270","MEAN_MOTION_DDOT":"0.0000000000000","MEAN_MOTION_DOT":"-0.00000728","REF_FRAME":"TEME","EPOCH":"2021-09-21T09:41:34.299744","ARG_OF_PERICENTER":"106.7587","FILE":"3121847","GP_ID":"185155270","MEAN_MOTION":"15.06397867","OBJECT_TYPE":"PAYLOAD","EPHEMERIS_TYPE":"0","ELEMENT_SET_NO":"999","INCLINATION":"53.0554","OBJECT_NAME":"STARLINK-1599"},{"PERIAPSIS":"546.074","SEMIMAJOR_AXIS":"6925.354","TIME_SYSTEM":"UTC","MEAN_ANOMALY":"275.7454","CLASSIFICATION_TYPE":"U","NORAD_CAT_ID":"46144","TLE_LINE1":"1 46144U 20057AD  21264.86461442 -.00000640  00000-0 -24048-4 0  9997","DECAY_DATE":null,"REV_AT_EPOCH":"4894","APOAPSIS":"548.364","RCS_SIZE":"LARGE","RA_OF_ASC_NODE":"53.1912","COUNTRY_CODE":"US","OBJECT_ID":"2020-057AD","TLE_LINE2":"2 46144  53.0556  53.1912 0001653  84.3723 275.7454 15.06398247 48942","BSTAR":"-0.00002404800000","CENTER_NAME":"EARTH","LAUNCH_DATE":"2020-08-18","ECCENTRICITY":"0.00016530","PERIOD":"95.592","MEAN_ELEMENT_THEORY":"SGP4","SITE":"AFETR","OBJECT_TYPE":"PAYLOAD","EPHEMERIS_TYPE":"0","ELEMENT_SET_NO":"999","INCLINATION":"53.0556","OBJECT_NAME":"STARLINK-1606","REF_FRAME":"TEME","EPOCH":"2021-09-21T20:45:02.685888","MEAN_MOTION_DDOT":"0.0000000000000","MEAN_MOTION_DOT":"-0.00000640","ARG_OF_PERICENTER":"84.3723","FILE":"3122258","MEAN_MOTION":"15.06398247","GP_ID":"185189191"},{"REV_AT_EPOCH":"6232","RCS_SIZE":"LARGE","APOAPSIS":"301.176","COUNTRY_CODE":"US","RA_OF_ASC_NODE":"26.6887","TLE_LINE2":"2 46145  53.0529  26.6887 0002726 337.5632  22.5274 15.91046258 62325","BSTAR":"0.00042857000000","OBJECT_ID":"2020-057AE","TIME_SYSTEM":"UTC","SEMIMAJOR_AXIS":"6677.491","PERIAPSIS":"297.536","NORAD_CAT_ID":"46145","CLASSIFICATION_TYPE":"U","MEAN_ANOMALY":"22.5274","TLE_LINE1":"1 46145U 20057AE  21264.82289514  .00135317  17856-4  42857-3 0  9998","DECAY_DATE":null,"EPHEMERIS_TYPE":"0","OBJECT_TYPE":"PAYLOAD","OBJECT_NAME":"STARLINK-1607","INCLINATION":"53.0529","ELEMENT_SET_NO":"999","ARG_OF_PERICENTER":"337.5632","MEAN_MOTION_DDOT":"0.0000178560000","MEAN_MOTION_DOT":"0.00135317","EPOCH":"2021-09-21T19:44:58.140096","REF_FRAME":"TEME","GP_ID":"185189939","MEAN_MOTION":"15.91046258","FILE":"3122258","CENTER_NAME":"EARTH","ECCENTRICITY":"0.00027260","LAUNCH_DATE":"2020-08-18","PERIOD":"90.506","SITE":"AFETR","MEAN_ELEMENT_THEORY":"SGP4"},{"FILE":"3122258","GP_ID":"185188687","MEAN_MOTION":"15.06392608","MEAN_MOTION_DDOT":"0.0000000000000","MEAN_MOTION_DOT":"0.00000969","REF_FRAME":"TEME","EPOCH":"2021-09-21T18:40:17.929056","ARG_OF_PERICENTER":"96.2511","ELEMENT_SET_NO":"999","INCLINATION":"53.0557","OBJECT_NAME":"STARLINK-1608","OBJECT_TYPE":"PAYLOAD","EPHEMERIS_TYPE":"0","SITE":"AFETR","MEAN_ELEMENT_THEORY":"SGP4","PERIOD":"95.593","LAUNCH_DATE":"2020-08-18","ECCENTRICITY":"0.00018920","CENTER_NAME":"EARTH","OBJECT_ID":"2020-057AF","BSTAR":"0.00008393700000","TLE_LINE2":"2 46146  53.0557  73.5893 0001892  96.2511 263.8693 15.06392608 60404","COUNTRY_CODE":"US","RA_OF_ASC_NODE":"73.5893","APOAPSIS":"548.546","RCS_SIZE":"LARGE","REV_AT_EPOCH":"6040","DECAY_DATE":null,"TLE_LINE1":"1 46146U 20057AF  21264.77798529  .00000969  00000-0  83937-4 0  9992","MEAN_ANOMALY":"263.8693","NORAD_CAT_ID":"46146","CLASSIFICATION_TYPE":"U","SEMIMAJOR_AXIS":"6925.371","TIME_SYSTEM":"UTC","PERIAPSIS":"545.926"},{"RCS_SIZE":"LARGE","APOAPSIS":"548.465","REV_AT_EPOCH":"6165","BSTAR":"-0.00003584300000","TLE_LINE2":"2 46147  53.0556  73.6689 0001787  90.4556 269.6638 15.06395549 61654","OBJECT_ID":"2020-057AG","RA_OF_ASC_NODE":"73.6689","COUNTRY_CODE":"US","CLASSIFICATION_TYPE":"U","NORAD_CAT_ID":"46147","MEAN_ANOMALY":"269.6638","PERIAPSIS":"545.990","SEMIMAJOR_AXIS":"6925.362","TIME_SYSTEM":"UTC","DECAY_DATE":null,"TLE_LINE1":"1 46147U 20057AG  21264.75955905 -.00000815  00000-0 -35843-4 0  9999","OBJECT_NAME":"STARLINK-1611","INCLINATION":"53.0556","ELEMENT_SET_NO":"999","EPHEMERIS_TYPE":"0","OBJECT_TYPE":"PAYLOAD","MEAN_MOTION":"15.06395549","GP_ID":"185188440","FILE":"3122258","ARG_OF_PERICENTER":"90.4556","EPOCH":"2021-09-21T18:13:45.901920","REF_FRAME":"TEME","MEAN_MOTION_DDOT":"0.0000000000000","MEAN_MOTION_DOT":"-0.00000815","ECCENTRICITY":"0.00017870","LAUNCH_DATE":"2020-08-18","CENTER_NAME":"EARTH","SITE":"AFETR","MEAN_ELEMENT_THEORY":"SGP4","PERIOD":"95.592"},{"COUNTRY_CODE":"US","RA_OF_ASC_NODE":"53.9321","BSTAR":"0.00007823800000","TLE_LINE2":"2 46148  53.0542  53.9321 0001533  99.4823 260.6339 15.06401176 60662","OBJECT_ID":"2020-057AH","REV_AT_EPOCH":"6066","RCS_SIZE":"LARGE","APOAPSIS":"548.272","TLE_LINE1":"1 46148U 20057AH  21264.69874119  .00000884  00000-0  78238-4 0  9999","DECAY_DATE":null,"SEMIMAJOR_AXIS":"6925.345","TIME_SYSTEM":"UTC","PERIAPSIS":"546.148","NORAD_CAT_ID":"46148","CLASSIFICATION_TYPE":"U","MEAN_ANOMALY":"260.6339","ARG_OF_PERICENTER":"99.4823","MEAN_MOTION_DOT":"0.00000884","MEAN_MOTION_DDOT":"0.0000000000000","EPOCH":"2021-09-21T16:46:11.238816","REF_FRAME":"TEME","GP_ID":"185189689","MEAN_MOTION":"15.06401176","FILE":"3122258","EPHEMERIS_TYPE":"0","OBJECT_TYPE":"PAYLOAD","OBJECT_NAME":"STARLINK-1616","INCLINATION":"53.0542","ELEMENT_SET_NO":"999","PERIOD":"95.592","SITE":"AFETR","MEAN_ELEMENT_THEORY":"SGP4","CENTER_NAME":"EARTH","ECCENTRICITY":"0.00015330","LAUNCH_DATE":"2020-08-18"},{"EPOCH":"2021-09-21T20:18:29.933856","REF_FRAME":"TEME","MEAN_MOTION_DDOT":"0.0000000000000","MEAN_MOTION_DOT":"0.00000780","ARG_OF_PERICENTER":"97.1324","FILE":"3122258","MEAN_MOTION":"15.06399179","GP_ID":"185189442","OBJECT_TYPE":"PAYLOAD","EPHEMERIS_TYPE":"0","ELEMENT_SET_NO":"999","INCLINATION":"53.0554","OBJECT_NAME":"STARLINK-1620","PERIOD":"95.592","SITE":"AFETR","MEAN_ELEMENT_THEORY":"SGP4","CENTER_NAME":"EARTH","LAUNCH_DATE":"2020-08-18","ECCENTRICITY":"0.00016290","RA_OF_ASC_NODE":"53.2770","COUNTRY_CODE":"US","OBJECT_ID":"2020-057AJ","TLE_LINE2":"2 46149  53.0554  53.2770 0001629  97.1324 262.9850 15.06399179 61960","BSTAR":"0.00007125000000","REV_AT_EPOCH":"6196","APOAPSIS":"548.344","RCS_SIZE":"LARGE","TLE_LINE1":"1 46149U 20057AJ  21264.84617979  .00000780  00000-0  71250-4 0  9998","DECAY_DATE":null,"PERIAPSIS":"546.088","SEMIMAJOR_AXIS":"6925.351","TIME_SYSTEM":"UTC","MEAN_ANOMALY":"262.9850","CLASSIFICATION_TYPE":"U","NORAD_CAT_ID":"46149"},{"EPHEMERIS_TYPE":"0","OBJECT_TYPE":"PAYLOAD","OBJECT_NAME":"STARLINK-1629","ELEMENT_SET_NO":"999","INCLINATION":"53.0548","ARG_OF_PERICENTER":"97.2196","MEAN_MOTION_DOT":"0.00000234","MEAN_MOTION_DDOT":"0.0000000000000","EPOCH":"2021-09-21T20:10:32.038176","REF_FRAME":"TEME","GP_ID":"185188190","MEAN_MOTION":"15.06403029","FILE":"3122258","CENTER_NAME":"EARTH","ECCENTRICITY":"0.00017780","LAUNCH_DATE":"2020-08-18","PERIOD":"95.592","MEAN_ELEMENT_THEORY":"SGP4","SITE":"AFETR","REV_AT_EPOCH":"6041","RCS_SIZE":"LARGE","APOAPSIS":"548.436","COUNTRY_CODE":"US","RA_OF_ASC_NODE":"73.2918","BSTAR":"0.00003464300000","TLE_LINE2":"2 46150  53.0548  73.2918 0001778  97.2196 262.8995 15.06403029 60412","OBJECT_ID":"2020-057AK","SEMIMAJOR_AXIS":"6925.339","TIME_SYSTEM":"UTC","PERIAPSIS":"545.973","NORAD_CAT_ID":"46150","CLASSIFICATION_TYPE":"U","MEAN_ANOMALY":"262.8995","TLE_LINE1":"1 46150U 20057AK  21264.84064859  .00000234  00000-0  34643-4 0  9992","DECAY_DATE":null}];
